#dP2021  1  4  0  0  0.00000000      96 __u+U ITR00 EXT  IAC
## 2139  86400.00000000   900.00000000 59218 0.0000000000000
+  115   C06C07C08C09C10C11C12C13C14C16C19C20C21C22C23C24C25
+        C26C27C28C29C30C32C33C34C35C36C37C38C39C40C43C44C45
+        C46E01E02E03E04E05E07E08E09E11E12E13E14E15E18E19E21
+        E24E25E26E27E30E31E33E36G01G02G03G04G05G06G07G08G09
+        G10G11G12G13G14G15G16G17G18G19G20G21G22G23G24G25G26
+        G27G28G29G30G31G32J01J02J03R01R02R03R04R05R07R08R09
+        R11R12R13R14R15R16R17R18R19R20R21R22R24  0  0  0  0
++        11  9  8  9 10  9  9  8  8 10 10 10  9  8  9  8  7
++         9 10 10 10  8  8  9  8  8  8 10 12 14 10 11 10 10
++        12  9  8  8  9  8  9  8  7 10  9  9  8  8 10  8  8
++         8  7  9  8  8  8  9  8  7  8  8  8  7  7  7  7  8
++         8  7  8  9  8  8  9  8  7  7  8  7  8  8  7  7  8
++         7  7  8  7  8  7 12 10  8  9  9  9  8  8  8  8  9
++         8  8  7  9  7 10  9  8  9  8  9 10  7  0  0  0  0
%c M  cc GPS ccc cccc cccc cccc cccc ccccc ccccc ccccc ccccc
%c cc cc ccc ccc cccc cccc cccc cccc ccccc ccccc ccccc ccccc
%f  0.0000000  0.000000000  0.00000000000  0.000000000000000
%f  0.0000000  0.000000000  0.00000000000  0.000000000000000
%i    0    0    0    0      0      0      0      0         0
%i    0    0    0    0      0      0      0      0         0
/* IAC                                ULTRA-RAPID PREDICTION
/* S/V CLOCKS ARE ALIGNED TO GNSS TIME                      
/* G:C1WC2W R:C1PC2P E:C1XC5X C:C2IC6I J:C1CC2S             
/* PCV:IGS14_2134 OL/AL:FES2004  NONE     YN ORB:CoN CLK:CoN
*  2021 01 04 23  0  0.00000000
PC06 -12065.803326  37780.618587  15399.650591    108.228945
PC07 -11442.599053  23701.749919 -32705.455291   -196.152874
PC08 -24037.997362  27799.492971  20401.622983   -862.308634
PC09  -2367.535064  42319.189374   -638.391822    825.508383
PC10   2923.458014  28597.578843 -30505.531495   -109.911566
PC11  10812.888393  15293.931234  20740.089727   -864.230916
PC12   -241.323056  26951.677586   7228.227309    709.160826
PC13 -10333.948381  28360.186007  29421.939244     83.762487
PC14  21497.437370  17748.792979   -179.094941   -167.933094
PC16 -10327.363126  38530.034999  14054.552762   -650.000036
PC19 -23747.369450 -11295.456712   9376.417512    679.172273
PC20 -16822.733464 -20912.989756  -7676.329586   -909.379300
PC21   -560.980437  18447.236105  20938.251974   -779.968230
PC22 -17109.591652   5092.392305  21452.803541   -834.740965
PC23  25186.331922 -11523.025625   3458.875109   -884.809490
PC24   8859.817289  13920.777056 -22516.779790   -737.231852
PC25  24604.386357    636.152486 -13181.333173   -885.969884
PC26 -10155.113466  18096.311863 -18648.064106    967.243892
PC27   6765.780719 -26977.024782   2153.979729    461.026578
PC28  15417.354727 -15047.777037  17748.822001   -125.618775
PC29 -15211.324233  -5080.366086 -22838.569339    334.186413
PC30  -6392.638943 -23110.689996 -14255.289910    426.869489
PC32    427.622634 -18454.737545 -20919.831125   -881.868871
PC33  23796.671688  11235.431978  -9268.265078   -899.938343
PC34   6747.695810  22739.491659  14717.874936   -770.520898
PC35 -15005.941181  15325.814195 -17868.170212   -480.864519
PC36 -24412.971771  -1465.155729  13453.603691   -785.193322
PC37  11450.831956 -17830.217505  18185.458694   -860.947332
PC38 -22158.876188  29451.438525  20381.342461    121.989513
PC39  -6280.713156  39939.015150  12188.768823     27.091995
PC40  -2955.975752  23648.417013 -34740.533721    117.987256
PC43  15179.843171   5700.875616  22713.235474   -537.475477
PC44  -6023.075888  27164.684385  -2360.867596    -29.986449
PC45 -25122.816669  11590.851437  -3519.621523    326.726446
PC46  -9624.843909 -13428.815144  22488.408420    467.172571
PE01 -28922.266635    782.378372  -6217.345882  -1017.972055
PE02  28917.359944   -854.196324   6321.753597    188.693057
PE03  18182.384073    311.596274 -23361.733517   -383.726833
PE04  -7797.146846  19373.235959  20975.843795   -682.193345
PE05  18052.195221  20120.354609 -12066.342140   -315.560048
PE07  -7385.470913 -27998.042008  -6166.085481   -483.494471
PE08   7364.234664 -19607.590645 -20926.001553   6066.845455
PE09   7672.948692  27932.203660   6053.585984   5809.812079
PE11  -3231.234198  23768.096414  17353.461745   6522.379443
PE12 -17796.995095  23651.445355   -700.011711   5422.841513
PE13   3522.147462 -23891.182818 -17102.713837    409.672833
PE14  -3300.975131  26235.352132  -8045.196246  -1283.536034
PE15  17688.354019 -23724.845470    673.325020    835.835826
PE18  -9027.516830 -27684.896366  -7165.655475  -1402.735124
PE19 -18657.855566  -2910.890411  22790.785990    170.337620
PE21 -24781.223332 -10921.362185  11937.970433   -641.067578
PE24   5362.930177  16798.022065 -23789.253424   -672.377396
PE25  24689.157246  11001.616602 -12072.879856   -523.652266
PE26 -13240.652265  -9538.505522 -24683.359002   2302.617759
PE27  -6081.245387 -16696.574093  23674.606239     57.881968
PE30  16845.243006 -12254.954553  21030.990044   3288.954719
PE31 -16050.709037  12621.645597 -21417.802061   -477.071286
PE33 -21425.283297   9624.014851 -18002.908584   -464.602031
PE36  12697.590348  10014.910766  24804.221004    458.587515
PG01  11273.078550 -20494.557620 -12493.945709    785.477859
PG02 -21254.776555  13431.320820  -7901.902999   -562.368562
PG03   1593.934397 -15288.534986 -21749.875402    -47.903455
PG04   2181.462718 -24995.754449  -8632.272262   -170.143466
PG05 -20756.712206   5204.764879  15698.605430    -30.142770
PG06 -18949.222251    -14.671627 -18566.545543     -4.640946
PG07  -4011.402737 -16145.359157  20933.750398      9.231907
PG08   6843.147649 -20138.937602  15732.484171     -5.427225
PG09  -7297.876687 -25369.603809   2752.697232   -309.248610
PG10  23335.024490  11896.898065   5295.498278    -31.896352
PG11  10837.797932 -24395.986981   1394.070401    -62.032346
PG12  -6245.466183  13639.889812 -22156.356716     17.398835
PG13 -13150.706697  11165.841392  20024.343900     82.389412
PG14 -21620.584056 -13823.864278   6852.118257     79.729468
PG15  -4564.766998  21471.175972  14342.051671   -178.543702
PG16  21530.612422  -1801.668537  15522.920629   -260.375437
PG17 -13411.174618 -14813.784449 -17067.591678    376.086364
PG18   5588.385777  14601.679940  21459.442494    338.740278
PG19 -14821.771691  -7016.486030 -21193.007913    -56.178236
PG20  15537.492321  14832.595801  15728.074027    525.310554
PG21  16853.380910 -19878.082934  -3089.673301     83.936218
PG22  10699.718976 -12904.849409 -20372.740306   -703.829940
PG23  15954.344366  15608.808012  14396.564367    114.538234
PG24 -13434.531100  21371.713969  -7815.501017      4.106446
PG25   8911.116346  16924.101722 -18792.551303     53.276795
PG26  25873.717074   3802.641565   5340.694014     25.056079
PG27  13211.113795  -7933.239216  21432.089299    -49.372152
PG28 -22540.983840 -13380.480338   4162.713529    634.075564
PG29   4405.566073  26093.019107   1963.289799   -269.554118
PG30 -14063.020865  -8418.400893  20977.761318   -363.728736
PG31  20827.267653  -1818.412679 -16723.409372    -91.903922
PG32  15075.177181  13417.354630 -17260.769030     12.469209
PJ01 -26149.847390  21407.293407  30233.003989   -335.759740
PJ02 -33728.785902  15591.578890 -15416.058515      0.481370
PJ03 -20240.532971  32778.978551 -12698.215971     -5.329845
PR01  -1912.735182 -16570.867425 -19306.706501     73.032681
PR02 -15666.648129 -20062.177964   -995.283010    461.517175
PR03 -17682.323745  -9968.326527  15448.305500     28.560389
PR04  -9520.659676   5439.288643  23051.507229     68.615762
PR05   3867.027754  17925.243786  17748.680384     64.154436
PR07  17568.966272   9593.687384 -15809.102003    -42.049893
PR08   9604.302928  -5485.461810 -22938.205474    -56.676617
PR09  12987.805881   7916.914728 -20442.252478     16.823036
PR11  21830.083560  -8717.920200   9906.322469      4.884737
PR12   6327.192359 -11604.035829  21846.377878    193.988018
PR13 -12616.227695  -7778.835241  20740.528790    -48.870318
PR14 -24478.007332    639.869292   7170.898708     59.492451
PR15 -21767.851883   8533.610401 -10171.426015    106.051201
PR16  -4949.173938  11840.070414 -22045.142532     -9.853760
PR17 -11239.602067    253.839091 -22876.874208    388.425617
PR18 -13240.427522  16631.653499 -14115.337901     62.066336
PR19  -9149.510541  23763.321979   1465.555958   -126.550780
PR20   1943.277183  17119.879098  18841.712404   -430.425313
PR21  11548.086934  -1497.979597  22706.105098   -178.095035
PR22  13156.508735 -17335.471219  13220.892617    -90.743413
PR24  -2922.223916 -16688.625971 -19050.404007     26.585651
EOF
